SL-8 R/B                
1 21088U 91006B   26093.62088469  .00000146  00000+0  13137-3 0  9996
2 21088  82.9436 151.5097 0021494 328.4829 140.1511 13.77498548767501
OKEAN-3                 
1 21397U 91039A   26093.61358798  .00005444  00000+0  38164-3 0  9992
2 21397  82.5148 312.6924 0012750 244.7891 115.2014 15.04959688868785
COSMOS 2151             
1 21422U 91042A   26093.89644592  .00003983  00000+0  31606-3 0  9995
2 21422  82.4959  59.3537 0011775 343.1998  16.8834 15.00223380866970
SL-14 R/B               
1 21423U 91042B   26093.80961949  .00000750  00000+0  91687-4 0  9990
2 21423  82.4960 196.6329 0017710 154.2579 205.9520 14.81857049856793
ERS-1                   
1 21574U 91050A   26093.65162813  .00000555  00000+0  19174-3 0  9995
2 21574  98.7859 112.5119 0032908 127.1573 233.2627 14.39470022819325
ARIANE 40 R/B           
1 21610U 91050F   26093.71254594  .00000527  00000+0  17009-3 0  9995
2 21610  98.1960 145.0035 0003200  23.1439 336.9896 14.42913314822604
INTERCOSMOS 25          
1 21819U 91086A   26093.58633411  .00002673  00000+0  51833-3 0  9996
2 21819  82.5999 294.9553 1486351  63.2920 311.2478 12.12089685499709
SL-8 R/B                
1 21876U 92008B   26093.89185419  .00000022  00000+0  61813-5 0  9995
2 21876  82.9242 249.0260 0035802  65.3935  45.0244 13.75969847712889
SL-8 R/B                
1 21938U 92020B   26093.65362810  .00000029  00000+0  14377-4 0  9993
2 21938  82.9292 135.2250 0028011 225.9685 253.8677 13.75550673704566
USA 81                  
1 21949U 92023A   26093.59794130  .00000250  00000+0  85021-4 0  9995
2 21949  85.0040 117.0652 0001546  69.6675 290.4683 14.32376553 98357
COSMOS 2219             
1 22219U 92076A   26093.77448736 -.00000159  00000+0 -58939-4 0  9990
2 22219  71.0608 325.6339 0017687 169.1114 191.0395 14.14089016721926
SL-16 R/B               
1 22220U 92076B   26093.56736407 -.00000136  00000+0 -44168-4 0  9998
2 22220  70.9986 135.9727 0010893  50.5206 111.1924 14.16862791725358
COSMOS 2221             
1 22236U 92080A   26093.84942245  .00004242  00000+0  37212-3 0  9991
2 22236  82.5014 254.9727 0015692 106.8740 253.4204 14.96318186784558
SL-16 R/B               
1 22285U 92093B   26093.75668298 -.00000036  00000+0  58585-5 0  9998
2 22285  71.0221 311.6459 0006643 269.6902  90.3460 14.15456222716701
COSMOS 2228             
1 22286U 92094A   26093.78210212  .00004332  00000+0  37009-3 0  9990
2 22286  82.5200 213.2857 0017201 213.4615 146.5522 14.97331669779816
SL-16 R/B               
1 22566U 93016B   26093.58760193  .00000337  00000+0  19729-3 0  9992
2 22566  71.0073 162.8921 0012375 282.2412  77.7325 14.15308080705697
COSMOS 2242             
1 22626U 93024A   26093.77520257  .00003985  00000+0  34637-3 0  9991
2 22626  82.5174 242.7152 0015496 217.1470 142.8681 14.96669797784145
